SL-16 R/B               
1 22566U 93016B   26064.89269229  .00000266  00000+0  16093-3 0  9990
2 22566  71.0063 223.1556 0011524 319.4689  40.5575 14.15306792701638
COSMOS 2242             
1 22626U 93024A   26065.29279724  .00002530  00000+0  21986-3 0  9995
2 22626  82.5152 269.9664 0015414 321.0593  38.9518 14.96531551779886
SL-16 R/B               
1 22803U 93059B   26065.23016657 -.00000109  00000+0 -30329-4 0  9992
2 22803  70.9924  18.4206 0018709 221.4934 138.4770 14.17232164679046
ARIANE 40 R/B           
1 22830U 93061H   26065.20704738  .00000283  00000+0  11953-3 0  9998
2 22830  98.4922 134.1632 0009619 296.5654  63.4544 14.32858908693601
COSMOS 2278             
1 23087U 94023A   26065.27370262  .00000245  00000+0  15287-3 0  9992
2 23087  71.0547 182.2431 0007795  20.0569 340.0858 14.14377342644320
SL-16 R/B               
1 23088U 94023B   26065.32169851 -.00000181  00000+0 -68676-4 0  9991
2 23088  70.9986  77.9609 0005695 288.8916  71.1589 14.15012986645617
SL-16 R/B               
1 23343U 94074B   26065.07212141  .00000576  00000+0  83904-4 0  9991
2 23343  97.7113  96.0363 0005534 224.3544 189.8306 14.79402724686716
SL-16 R/B               
1 23405U 94077B   26065.23396789 -.00000190  00000+0 -72812-4 0  9992
2 23405  70.9852 359.7583 0003302 217.0855 143.0040 14.15561499615743
ARIANE 40+ R/B          
1 23561U 95021B   26065.19398473  .00000353  00000+0  12658-3 0  9992
2 23561  98.4504 136.7239 0007490 145.9211 228.3004 14.39769260618745
SL-16 R/B               
1 23705U 95058B   26065.31146710  .00000149  00000+0  10046-3 0  9993
2 23705  71.0214 187.3468 0010956 131.7197 228.4865 14.15493309567373
SL-16 R/B               
1 24298U 96051B   26065.27083281  .00000125  00000+0  94178-4 0  9996
2 24298  70.7599 182.4746 0015370 153.2319 206.9597 14.12414692521163
ORBVIEW 2 (SEASTAR)     
1 24883U 97037A   26065.28129635  .00000460  00000+0  17627-3 0  9991
2 24883  98.8560 229.5028 0003146  78.7692 281.3846 14.35492135507982
